STARLINK-1642           
1 46154U 20057AP  22091.25607375  .00013258  00000+0  90691-3 0  9999
2 46154  53.0536 284.0084 0001570  68.5608 291.5548 15.06414641 89403
STARLINK-1667           
1 46155U 20057AQ  22091.81172407  .00003512  00000+0  25447-3 0  9994
2 46155  53.0550 251.4893 0001531  67.7840 292.3312 15.06412114 90562
STARLINK-1545           
1 46156U 20057AR  22091.33808101  .00004423  00000+0  31557-3 0  9990
2 46156  53.0528 273.6178 0001400  63.4806 296.6326 15.06407611 90805
STARLINK-1587           
1 46157U 20057AS  22091.59056403  .00003599  00000+0  26029-3 0  9990
2 46157  53.0548 252.4979 0001731  66.0209 294.0961 15.06413282 89878
STARLINK-1589           
1 46158U 20057AT  22091.58687970  .00004362  00000+0  31140-3 0  9998
2 46158  53.0547 252.5167 0001620  72.3752 287.7414 15.06415823 91135
STARLINK-1595           
1 46159U 20057AU  22091.29569964  .00003021  00000+0  22157-3 0  9998
2 46159  53.0537 293.8242 0001386  72.3360 287.7780 15.06403284 90527
STARLINK-1598           
1 46160U 20057AV  22091.81725609  .00004970  00000+0  35223-3 0  9990
2 46160  53.0540 271.4737 0001891  56.1677 303.9492 15.06409837 90280
STARLINK-1600           
1 46161U 20057AW  22091.46340823  .00002239  00000+0  16911-3 0  9992
2 46161  53.0542 273.0588 0001193  79.8436 280.2687 15.06404432 90824
STARLINK-1603           
1 46162U 20057AX  22091.79883492 -.00001827  00000+0 -10380-3 0  9991
2 46162  53.0563 271.5639 0001697  69.9601 290.1571 15.06386976 90296
STARLINK-1610           
1 46163U 20057AY  22091.79697408  .00003385  00000+0  24592-3 0  9991
2 46163  53.0522 251.5643 0001508  61.7742 298.3399 15.06417460 90563
STARLINK-1612           
1 46164U 20057AZ  22091.46156036  .00000833  00000+0  74764-4 0  9995
2 46164  53.0528 253.0689 0001311  67.3164 292.7964 15.06408635 91111
STARLINK-1613           
1 46165U 20057BA  22090.97798196  .00025694  00000+0  16067-2 0  9992
2 46165  53.0523 294.2188 0001101  86.4832 273.6284 15.09287500 89231
STARLINK-1615           
1 46166U 20057BB  22091.51316562  .00003651  00000+0  26374-3 0  9999
2 46166  53.0538 292.8391 0001427  73.5653 286.5492 15.06414598 89967
STARLINK-1626           
1 46167U 20057BC  22091.85964157  .00002378  00000+0  17846-3 0  9995
2 46167  53.0527 291.2999 0001505  65.4333 294.6812 15.06405284 90011
STARLINK-1627           
1 46168U 20057BD  22091.56473832  .00008337  00000+0  57760-3 0  9999
2 46168  53.0535 242.6052 0001568  66.0083 294.1070 15.06421592 90009
STARLINK-1628           
1 46169U 20057BE  22091.03935037  .00002593  00000+0  19705-3 0  9997
2 46169  53.0010 294.9577 0001498  80.4881 279.6277 15.05589205 89198
STARLINK-1633           
1 46171U 20057BG  22091.23856476  .00005535  00000+0  39005-3 0  9995
2 46171  53.0529 274.0710 0001674  65.3781 294.7382 15.06412178 90799
STARLINK-1635           
1 46172U 20057BH  22091.78408552  .00000733  00000+0  68107-4 0  9995
2 46172  53.0531 271.6365 0001572  63.9524 296.1627 15.06399673 90273
STARLINK-1640           
1 46173U 20057BJ  22091.83015600 -.00000782  00000+0 -33606-4 0  9992
2 46173  53.0541 291.4284 0001672  57.9962 302.1189 15.06403226 90007
STARLINK-1641           
1 46174U 20057BK  22091.50579775  .00002552  00000+0  19011-3 0  9993
2 46174  53.0544 292.8815 0001713  61.2944 298.8217 15.06409682 89294
STARLINK-1734           
1 46325U 20062A   22091.58365943  .00006368  00000+0  44586-3 0  9999
2 46325  53.0544 307.5358 0001490  61.6034 298.5105 15.06414568 88790
STARLINK-1654           
1 46326U 20062B   22091.82367213  .00000962  00000+0  83462-4 0  9990
2 46326  53.0562 351.4454 0001666  51.8948 308.2191 15.06413335 87778
STARLINK-1673           
1 46327U 20062C   22091.13904207  .00002841  00000+0  20953-3 0  9998
2 46327  53.0555 354.5369 0001559  77.2902 282.8261 15.06402003 87486
STARLINK-1686           
1 46328U 20062D   22091.38415932  .00011166  00000+0  76692-3 0  9999
2 46328  53.0551 333.4272 0001700  51.6186 308.4956 15.06420118 87809
STARLINK-1695           
1 46329U 20062E   22091.81539509  .00003462  00000+0  25109-3 0  9992
2 46329  53.0564 331.4848 0001645  52.6140 307.4999 15.06417793 88048
STARLINK-1710           
1 46330U 20062F   22091.40626610  .00005574  00000+0  39266-3 0  9994
2 46330  53.0548 333.3159 0001511  66.7974 293.3174 15.06410369 87815
STARLINK-1719           
1 46331U 20062G   22091.44128678  .00018613  00000+0  12641-2 0  9995
2 46331  53.0540 353.1705 0001604  65.4597 294.6559 15.06431362 87711
STARLINK-1721           
1 46332U 20062H   22091.45234121  .00013940  00000+0  95204-3 0  9993
2 46332  53.0560 353.1206 0001611  66.0345 294.0812 15.06433972 87711
STARLINK-1723           
1 46333U 20062J   22091.20170156  .00012299  00000+0  84256-3 0  9995
2 46333  53.0559 354.2501 0001499  61.5051 298.6089 15.06426064 87493
STARLINK-1725           
1 46334U 20062K   22091.37583614  .00008693  00000+0  60138-3 0  9997
2 46334  53.0554 333.4532 0001714  59.2362 300.8796 15.06422901 87803
STARLINK-1727           
1 46335U 20062L   22091.43022443  .00013649  00000+0  93270-3 0  9993
2 46335  53.0567 353.2214 0001515  55.8716 304.2416 15.06429257 87537
STARLINK-1738           
1 46336U 20062M   22091.81909127  .00005600  00000+0  39436-3 0  9991
2 46336  53.0529 331.4810 0001620  56.9049 303.2096 15.06417502 88055
STARLINK-1750           
1 46337U 20062N   22091.36941040  .00008904  00000+0  61565-3 0  9990
2 46337  53.0567 333.4856 0001862  52.1811 307.9347 15.06416882 87805
STARLINK-1752           
1 46338U 20062P   22091.41916632  .00006043  00000+0  42402-3 0  9997
2 46338  53.0566 353.2624 0001639  55.5423 304.5720 15.06418492 87522
STARLINK-1759           
1 46340U 20062R   22091.45876141  .00005605  00000+0  39481-3 0  9990
2 46340  53.0579 353.0820 0001694  57.2545 302.8607 15.06406563 87712
STARLINK-1760           
1 46341U 20062S   22091.86332354  .00003015  00000+0  22114-3 0  9997
2 46341  53.0560 331.2697 0001505  64.1558 295.9587 15.06412479 88066
STARLINK-1762           
1 46342U 20062T   22091.44496179  .00004723  00000+0  33557-3 0  9998
2 46342  53.0551 353.1373 0001610  58.4530 301.6616 15.06420584 87719
STARLINK-1764           
1 46343U 20062U   22091.37310083  .00001252  00000+0  10293-3 0  9996
2 46343  53.0559 333.4826 0001557  60.3771 299.7373 15.06392000 87809
STARLINK-1765           
1 46344U 20062V   22091.85596377  .00000597  00000+0  58975-4 0  9993
2 46344  53.0564 331.3037 0001728  52.3590 307.7556 15.06390946 88033
STARLINK-1767           
1 46345U 20062W   22091.45970515  .00005312  00000+0  37518-3 0  9999
2 46345  53.0563 353.0716 0001515  68.1874 291.9277 15.06408882 87539
STARLINK-1546           
1 46346U 20062X   22091.67418788  .00006761  00000+0  21156-3 0  9993
2 46346  53.0545 210.6879 0003778   4.9554 355.1484 15.34325385 89749
STARLINK-1547           
1 46347U 20062Y   22090.95337022  .00007280  00000+0  50699-3 0  9996
2 46347  53.0548 310.3474 0001915  57.5604 302.5569 15.06412129 88070
STARLINK-1553           
1 46348U 20062Z   22091.85963458  .00006902  00000+0  48157-3 0  9991
2 46348  53.0545 331.2767 0001140  70.0140 290.0971 15.06417324 88058
STARLINK-1575           
1 46349U 20062AA  22091.59102747  .00005322  00000+0  37573-3 0  9994
2 46349  53.0522 307.5002 0001475  61.6201 298.4936 15.06417042 88181
STARLINK-1617           
1 46350U 20062AB  22091.82092931  .00003821  00000+0  27512-3 0  9999
2 46350  53.0559 351.4727 0001652  61.1670 298.9484 15.06420627 87777
STARLINK-1646           
1 46351U 20062AC  22091.36203457  .00009755  00000+0  67256-3 0  9997
2 46351  53.0549 333.5122 0001644  56.8923 303.2223 15.06416581 87809
STARLINK-1653           
1 46352U 20062AD  22091.40994985  .00010142  00000+0  69837-3 0  9995
2 46352  53.0551 333.3005 0001520  70.2205 289.8948 15.06420783 87810
STARLINK-1656           
1 46353U 20062AE  22091.14272185  .00005620  00000+0  39578-3 0  9992
2 46353  53.0567 354.5148 0001600  61.6268 298.4882 15.06409296 87485
STARLINK-1657           
1 46354U 20062AF  22091.46339821  .00005827  00000+0  40952-3 0  9996
2 46354  53.0560 353.0555 0001827  58.6043 301.5124 15.06421171 87530
STARLINK-1661           
1 46355U 20062AG  22091.43759614  .00004707  00000+0  33457-3 0  9998
2 46355  53.0556 353.1844 0001280  62.1800 297.9319 15.06414777 87530
STARLINK-1665           
1 46356U 20062AH  22091.44865512  .00018264  00000+0  12409-2 0  9991
2 46356  53.0545 353.1273 0001659  69.8560 290.2607 15.06428558 87530
STARLINK-1666           
1 46357U 20062AJ  22091.84489271  .00005967  00000+0  41892-3 0  9995
2 46357  53.0540 331.3551 0001692  57.6196 302.4956 15.06417232 88058
STARLINK-1690           
1 46358U 20062AK  22091.42654034  .00009501  00000+0  65533-3 0  9997
2 46358  53.0550 353.2209 0001920  52.1376 307.9786 15.06430062 87536
STARLINK-1707           
1 46359U 20062AL  22091.34038645  .00007033  00000+0  49033-3 0  9998
2 46359  53.0547 308.6258 0001955  50.2494 309.8667 15.06418250 88141
STARLINK-1713           
1 46360U 20062AM  22091.29615308  .00003688  00000+0  26631-3 0  9992
2 46360  53.0539 308.8245 0001644  52.9563 307.1576 15.06405057 88144
STARLINK-1722           
1 46361U 20062AN  22091.33301654  .00004363  00000+0  31155-3 0  9992
2 46361  53.0524 308.6646 0001457  70.7854 289.3293 15.06408367 88149
STARLINK-1726           
1 46362U 20062AP  22091.50993902  .00001800  00000+0  13969-3 0  9991
2 46362  53.0561 307.8555 0001645  63.4608 296.6550 15.06405577 88176
STARLINK-1739           
1 46363U 20062AQ  22091.30352989  .00005334  00000+0  37664-3 0  9998
2 46363  53.0540 308.7757 0001657  60.1013 300.0140 15.06410599 88147
STARLINK-1763           
1 46364U 20062AR  22091.52557848  .00011999  00000+0  82256-3 0  9995
2 46364  53.0475 287.8401 0002751 161.0775 199.0316 15.06420599 88456
